ONEWEB-0456             
1 51646U 22012AA  23266.65591061  .00000157  00000+0  41231-3 0  9997
2 51646  87.8854 234.3466 0002245  75.9424 284.1953 13.10378655 79991
ONEWEB-0457             
1 51647U 22012AB  23266.48044078 -.00000528  00000+0 -15501-2 0  9994
2 51647  87.8850 234.3845 0001541  89.2561 270.8743 13.10370533 78688
ONEWEB-0458             
1 51648U 22012AC  23266.42520963  .00000192  00000+0  51228-3 0  9993
2 51648  87.8856 234.4082 0002159  87.8213 272.3162 13.10377988 78631
ONEWEB-0461             
1 51649U 22012AD  23266.35036944  .00000051  00000+0  98045-4 0  9990
2 51649  87.9349 204.1253 0001873  79.9498 280.1845 13.17647856 82487
ONEWEB-0463             
1 51650U 22012AE  23266.33349598  .00000127  00000+0  29284-3 0  9994
2 51650  87.9237 204.1794 0001800  76.8744 283.2588 13.17648930 82263
ONEWEB-0464             
1 51651U 22012AF  23266.42194331 -.00000033  00000+0 -13211-3 0  9999
2 51651  87.8857 234.3972 0002451  77.4786 282.6615 13.10371468 78654
ONEWEB-0468             
1 51652U 22012AG  23266.96295618 -.00000766  00000+0 -22317-2 0  9998
2 51652  87.8857 234.2829 0002206  82.7296 277.4082 13.10380519 79993
ONEWEB-0473             
1 51653U 22012AH  23266.64290655 -.00000442  00000+0 -13017-2 0  9998
2 51653  87.8856 234.3508 0002148  84.6205 275.5167 13.10371952 79965
